ONEWEB-0320             
1 49190U 21083E   26193.88430748  .00000048  00000+0  88957-4 0  9992
2 49190  87.9184 330.3503 0001897  99.3863 260.7484 13.18687438233369
ONEWEB-0321             
1 49191U 21083F   26194.18562243 -.00000009  00000+0 -54402-4 0  9990
2 49191  87.9189 269.2544 0002021 104.2946 255.8412 13.20772000240264
ONEWEB-0322             
1 49192U 21083G   26194.28431666 -.00000324  00000+0 -92336-3 0  9993
2 49192  87.8976 315.0412 0002014 113.9530 246.1810 13.13470090234343
ONEWEB-0324             
1 49193U 21083H   26194.31260409  .00000031  00000+0  46700-4 0  9991
2 49193  87.9198 330.2551 0002065  94.7207 265.4161 13.18686914233449
ONEWEB-0325             
1 49194U 21083J   26194.31596774  .00000023  00000+0  24962-4 0  9996
2 49194  87.9187 330.2600 0001844 100.7313 259.4027 13.18687953233452
ONEWEB-0326             
1 49195U 21083K   26194.33129892  .00000030  00000+0  44225-4 0  9994
2 49195  87.9196 330.2568 0001661  92.0007 268.1315 13.18686059233448
ONEWEB-0327             
1 49196U 21083L   26194.33101860  .00000034  00000+0  53809-4 0  9992
2 49196  87.9182 330.2592 0001494  92.4546 267.6758 13.18685987233463
ONEWEB-0328             
1 49197U 21083M   26194.27415894 -.00000141  00000+0 -41985-3 0  9993
2 49197  87.8988 315.0191 0002065  98.9694 261.1669 13.13469742234323
ONEWEB-0331             
1 49198U 21083N   26194.32440018 -.00000015  00000+0 -69658-4 0  9994
2 49198  87.9194 330.2532 0001750  86.4104 273.7229 13.18684564233450
ONEWEB-0333             
1 49199U 21083P   26194.26908088  .00000041  00000+0  78712-4 0  9992
2 49199  87.8977 315.0441 0001882 100.3095 259.8246 13.13469417234335
ONEWEB-0334             
1 49200U 21083Q   26194.19991483  .00000039  00000+0  62984-4 0  9999
2 49200  87.9191 269.2610 0002351 117.0714 243.0660 13.20769275240223
ONEWEB-0335             
1 49201U 21083R   26194.26399900  .00000268  00000+0  69959-3 0  9996
2 49201  87.8974 315.0422 0001781  96.1932 263.9400 13.13466407234340
ONEWEB-0336             
1 49202U 21083S   26194.31139777  .00000150  00000+0  37705-3 0  9991
2 49202  87.8973 315.0280 0001841  91.3403 268.7937 13.13469352234349
ONEWEB-0337             
1 49203U 21083T   26194.32142904  .00000326  00000+0  85767-3 0  9995
2 49203  87.8975 315.0313 0002065  95.4674 264.6691 13.13469571234348
ONEWEB-0338             
1 49204U 21083U   26194.17719310 -.00000021  00000+0 -83322-4 0  9990
2 49204  87.9198 269.2661 0002046 107.9472 252.1885 13.20770580240243
ONEWEB-0339             
1 49205U 21083V   26194.33002406  .00000277  00000+0  72416-3 0  9992
2 49205  87.8981 315.0224 0002094 108.2066 251.9292 13.13469224234327
