{"fetched_at":"2026-07-13T18:16:31.793Z","source":"https://celestrak.org/NORAD/elements/gp.php?GROUP=oneweb&FORMAT=JSON","constellation":"oneweb","records":[{"OBJECT_NAME":"ONEWEB-0320","OBJECT_ID":"2021-083E","EPOCH":"2026-07-12T21:13:24.166272","CLASSIFICATION_TYPE":"U","MEAN_MOTION":13.18687438,"ECCENTRICITY":0.00018977,"INCLINATION":87.9184,"RA_OF_ASC_NODE":330.3503,"ARG_OF_PERICENTER":99.3863,"MEAN_ANOMALY":260.7484,"EPHEMERIS_TYPE":0,"NORAD_CAT_ID":49190,"ELEMENT_SET_NO":999,"REV_AT_EPOCH":23336,"BSTAR":0.000088956814,"MEAN_MOTION_DOT":4.8e-7,"MEAN_MOTION_DDOT":0},{"OBJECT_NAME":"ONEWEB-0321","OBJECT_ID":"2021-083F","EPOCH":"2026-07-13T04:27:17.777952","CLASSIFICATION_TYPE":"U","MEAN_MOTION":13.20772,"ECCENTRICITY":0.00020219,"INCLINATION":87.9189,"RA_OF_ASC_NODE":269.2544,"ARG_OF_PERICENTER":104.2946,"MEAN_ANOMALY":255.8412,"EPHEMERIS_TYPE":0,"NORAD_CAT_ID":49191,"ELEMENT_SET_NO":999,"REV_AT_EPOCH":24026,"BSTAR":-0.000054402044,"MEAN_MOTION_DOT":-9e-8,"MEAN_MOTION_DDOT":0},{"OBJECT_NAME":"ONEWEB-0322","OBJECT_ID":"2021-083G","EPOCH":"2026-07-13T06:49:24.959424","CLASSIFICATION_TYPE":"U","MEAN_MOTION":13.1347009,"ECCENTRICITY":0.0002014,"INCLINATION":87.8976,"RA_OF_ASC_NODE":315.0412,"ARG_OF_PERICENTER":113.953,"MEAN_ANOMALY":246.181,"EPHEMERIS_TYPE":0,"NORAD_CAT_ID":49192,"ELEMENT_SET_NO":999,"REV_AT_EPOCH":23434,"BSTAR":-0.00092336152,"MEAN_MOTION_DOT":-0.00000324,"MEAN_MOTION_DDOT":0},{"OBJECT_NAME":"ONEWEB-0324","OBJECT_ID":"2021-083H","EPOCH":"2026-07-13T07:30:08.993376","CLASSIFICATION_TYPE":"U","MEAN_MOTION":13.18686914,"ECCENTRICITY":0.0002065,"INCLINATION":87.9198,"RA_OF_ASC_NODE":330.2551,"ARG_OF_PERICENTER":94.7207,"MEAN_ANOMALY":265.4161,"EPHEMERIS_TYPE":0,"NORAD_CAT_ID":49193,"ELEMENT_SET_NO":999,"REV_AT_EPOCH":23344,"BSTAR":0.000046699747,"MEAN_MOTION_DOT":3.1e-7,"MEAN_MOTION_DDOT":0},{"OBJECT_NAME":"ONEWEB-0325","OBJECT_ID":"2021-083J","EPOCH":"2026-07-13T07:34:59.612736","CLASSIFICATION_TYPE":"U","MEAN_MOTION":13.18687953,"ECCENTRICITY":0.0001844,"INCLINATION":87.9187,"RA_OF_ASC_NODE":330.26,"ARG_OF_PERICENTER":100.7313,"MEAN_ANOMALY":259.4027,"EPHEMERIS_TYPE":0,"NORAD_CAT_ID":49194,"ELEMENT_SET_NO":999,"REV_AT_EPOCH":23345,"BSTAR":0.000024961824,"MEAN_MOTION_DOT":2.3e-7,"MEAN_MOTION_DDOT":0},{"OBJECT_NAME":"ONEWEB-0326","OBJECT_ID":"2021-083K","EPOCH":"2026-07-13T07:57:04.226688","CLASSIFICATION_TYPE":"U","MEAN_MOTION":13.18686059,"ECCENTRICITY":0.00016613,"INCLINATION":87.9196,"RA_OF_ASC_NODE":330.2568,"ARG_OF_PERICENTER":92.0007,"MEAN_ANOMALY":268.1315,"EPHEMERIS_TYPE":0,"NORAD_CAT_ID":49195,"ELEMENT_SET_NO":999,"REV_AT_EPOCH":23344,"BSTAR":0.000044225288,"MEAN_MOTION_DOT":3e-7,"MEAN_MOTION_DDOT":0},{"OBJECT_NAME":"ONEWEB-0327","OBJECT_ID":"2021-083L","EPOCH":"2026-07-13T07:56:40.007040","CLASSIFICATION_TYPE":"U","MEAN_MOTION":13.18685987,"ECCENTRICITY":0.00014949,"INCLINATION":87.9182,"RA_OF_ASC_NODE":330.2592,"ARG_OF_PERICENTER":92.4546,"MEAN_ANOMALY":267.6758,"EPHEMERIS_TYPE":0,"NORAD_CAT_ID":49196,"ELEMENT_SET_NO":999,"REV_AT_EPOCH":23346,"BSTAR":0.000053809373,"MEAN_MOTION_DOT":3.4e-7,"MEAN_MOTION_DDOT":0},{"OBJECT_NAME":"ONEWEB-0328","OBJECT_ID":"2021-083M","EPOCH":"2026-07-13T06:34:47.332416","CLASSIFICATION_TYPE":"U","MEAN_MOTION":13.13469742,"ECCENTRICITY":0.00020653,"INCLINATION":87.8988,"RA_OF_ASC_NODE":315.0191,"ARG_OF_PERICENTER":98.9694,"MEAN_ANOMALY":261.1669,"EPHEMERIS_TYPE":0,"NORAD_CAT_ID":49197,"ELEMENT_SET_NO":999,"REV_AT_EPOCH":23432,"BSTAR":-0.00041985339,"MEAN_MOTION_DOT":-0.00000141,"MEAN_MOTION_DDOT":0},{"OBJECT_NAME":"ONEWEB-0331","OBJECT_ID":"2021-083N","EPOCH":"2026-07-13T07:47:08.175552","CLASSIFICATION_TYPE":"U","MEAN_MOTION":13.18684564,"ECCENTRICITY":0.00017504,"INCLINATION":87.9194,"RA_OF_ASC_NODE":330.2532,"ARG_OF_PERICENTER":86.4104,"MEAN_ANOMALY":273.7229,"EPHEMERIS_TYPE":0,"NORAD_CAT_ID":49198,"ELEMENT_SET_NO":999,"REV_AT_EPOCH":23345,"BSTAR":-0.000069658061,"MEAN_MOTION_DOT":-1.5e-7,"MEAN_MOTION_DDOT":0},{"OBJECT_NAME":"ONEWEB-0333","OBJECT_ID":"2021-083P","EPOCH":"2026-07-13T06:27:28.588032","CLASSIFICATION_TYPE":"U","MEAN_MOTION":13.13469417,"ECCENTRICITY":0.00018829,"INCLINATION":87.8977,"RA_OF_ASC_NODE":315.0441,"ARG_OF_PERICENTER":100.3095,"MEAN_ANOMALY":259.8246,"EPHEMERIS_TYPE":0,"NORAD_CAT_ID":49199,"ELEMENT_SET_NO":999,"REV_AT_EPOCH":23433,"BSTAR":0.000078711915,"MEAN_MOTION_DOT":4.1e-7,"MEAN_MOTION_DDOT":0},{"OBJECT_NAME":"ONEWEB-0334","OBJECT_ID":"2021-083Q","EPOCH":"2026-07-13T04:47:52.641312","CLASSIFICATION_TYPE":"U","MEAN_MOTION":13.20769275,"ECCENTRICITY":0.00023518,"INCLINATION":87.9191,"RA_OF_ASC_NODE":269.261,"ARG_OF_PERICENTER":117.0714,"MEAN_ANOMALY":243.066,"EPHEMERIS_TYPE":0,"NORAD_CAT_ID":49200,"ELEMENT_SET_NO":999,"REV_AT_EPOCH":24022,"BSTAR":0.000062984431,"MEAN_MOTION_DOT":3.9e-7,"MEAN_MOTION_DDOT":0},{"OBJECT_NAME":"ONEWEB-0335","OBJECT_ID":"2021-083R","EPOCH":"2026-07-13T06:20:09.513600","CLASSIFICATION_TYPE":"U","MEAN_MOTION":13.13466407,"ECCENTRICITY":0.00017811,"INCLINATION":87.8974,"RA_OF_ASC_NODE":315.0422,"ARG_OF_PERICENTER":96.1932,"MEAN_ANOMALY":263.94,"EPHEMERIS_TYPE":0,"NORAD_CAT_ID":49201,"ELEMENT_SET_NO":999,"REV_AT_EPOCH":23434,"BSTAR":0.00069958552,"MEAN_MOTION_DOT":0.00000268,"MEAN_MOTION_DDOT":0},{"OBJECT_NAME":"ONEWEB-0336","OBJECT_ID":"2021-083S","EPOCH":"2026-07-13T07:28:24.767328","CLASSIFICATION_TYPE":"U","MEAN_MOTION":13.13469352,"ECCENTRICITY":0.00018417,"INCLINATION":87.8973,"RA_OF_ASC_NODE":315.028,"ARG_OF_PERICENTER":91.3403,"MEAN_ANOMALY":268.7937,"EPHEMERIS_TYPE":0,"NORAD_CAT_ID":49202,"ELEMENT_SET_NO":999,"REV_AT_EPOCH":23434,"BSTAR":0.00037704586,"MEAN_MOTION_DOT":0.0000015,"MEAN_MOTION_DDOT":0},{"OBJECT_NAME":"ONEWEB-0337","OBJECT_ID":"2021-083T","EPOCH":"2026-07-13T07:42:51.469056","CLASSIFICATION_TYPE":"U","MEAN_MOTION":13.13469571,"ECCENTRICITY":0.0002065,"INCLINATION":87.8975,"RA_OF_ASC_NODE":315.0313,"ARG_OF_PERICENTER":95.4674,"MEAN_ANOMALY":264.6691,"EPHEMERIS_TYPE":0,"NORAD_CAT_ID":49203,"ELEMENT_SET_NO":999,"REV_AT_EPOCH":23434,"BSTAR":0.00085767459,"MEAN_MOTION_DOT":0.00000326,"MEAN_MOTION_DDOT":0},{"OBJECT_NAME":"ONEWEB-0338","OBJECT_ID":"2021-083U","EPOCH":"2026-07-13T04:15:09.483840","CLASSIFICATION_TYPE":"U","MEAN_MOTION":13.2077058,"ECCENTRICITY":0.0002046,"INCLINATION":87.9198,"RA_OF_ASC_NODE":269.2661,"ARG_OF_PERICENTER":107.9472,"MEAN_ANOMALY":252.1885,"EPHEMERIS_TYPE":0,"NORAD_CAT_ID":49204,"ELEMENT_SET_NO":999,"REV_AT_EPOCH":24024,"BSTAR":-0.000083322421,"MEAN_MOTION_DOT":-2.1e-7,"MEAN_MOTION_DDOT":0},{"OBJECT_NAME":"ONEWEB-0339","OBJECT_ID":"2021-083V","EPOCH":"2026-07-13T07:55:14.078784","CLASSIFICATION_TYPE":"U","MEAN_MOTION":13.13469224,"ECCENTRICITY":0.0002094,"INCLINATION":87.8981,"RA_OF_ASC_NODE":315.0224,"ARG_OF_PERICENTER":108.2066,"MEAN_ANOMALY":251.9292,"EPHEMERIS_TYPE":0,"NORAD_CAT_ID":49205,"ELEMENT_SET_NO":999,"REV_AT_EPOCH":23432,"BSTAR":0.00072416483,"MEAN_MOTION_DOT":0.00000277,"MEAN_MOTION_DDOT":0}]}
